KUIPER-00027            
1 63740U 25088S   25196.92058401  .00011969  00000+0  32664-3 0  9994
2 63740  51.8709  81.1408 0002307  67.1257 292.9973 15.37850101 12290
KUIPER-00028            
1 63741U 25088T   25196.91251536  .00012329  00000+0  33498-3 0  9995
2 63741  51.8702  81.0853 0001962  53.4654 306.6513 15.37956954 12704
KUIPER-00029            
1 63742U 25088U   25197.02359846  .00010414  00000+0  29561-3 0  9991
2 63742  51.8689  81.0617 0005165  44.8086 315.3317 15.36767967 12240
KUIPER-00030            
1 63743U 25088V   25197.58335648  .00012767  00000+0  60486-3 0  9991
2 63743  51.8789  80.5657 0010694  22.3543 218.0499 15.19608406 12571
KUIPER-00031            
1 63744U 25088W   25197.38730779  .00008837  00000+0  24686-3 0  9999
2 63744  51.8702  79.0080 0004241  42.5549 317.5766 15.37483404 12303
KUIPER-00032            
1 63745U 25088X   25197.07721894 -.00003628  00000+0 -87360-4 0  9998
2 63745  51.8688  80.6695 0004912  29.4354 330.6908 15.37235090 13255
KUIPER-00033            
1 63746U 25088Y   25197.25002315  .00002027  00000+0  29568-3 0  9994
2 63746  51.9096  92.1246 0003422 101.9922 140.7436 14.79815543 12585
KUIPER-00034            
1 63747U 25088Z   25197.36946556  .00009384  00000+0  26039-3 0  9994
2 63747  51.8709  78.8981 0002399  62.7531 297.3700 15.37612921 12465
