<?xml version="1.0" encoding="UTF-8"?>
<ndm xmlns:xsi="http://www.w3.org/2001/XMLSchema-instance" xsi:noNamespaceSchemaLocation="https://sanaregistry.org/r/ndmxml_unqualified/ndmxml-2.0.0-master-2.0.xsd">
<omm id="CCSDS_OMM_VERS" version="2.0">
<header><CREATION_DATE/><ORIGINATOR/></header><body><segment><metadata><OBJECT_NAME>KUIPER-00027</OBJECT_NAME><OBJECT_ID>2025-088S</OBJECT_ID><CENTER_NAME>EARTH</CENTER_NAME><REF_FRAME>TEME</REF_FRAME><TIME_SYSTEM>UTC</TIME_SYSTEM><MEAN_ELEMENT_THEORY>SGP4</MEAN_ELEMENT_THEORY></metadata><data><meanElements><EPOCH>2025-07-15T22:05:38.458464</EPOCH><MEAN_MOTION>15.37850101</MEAN_MOTION><ECCENTRICITY>.0002307</ECCENTRICITY><INCLINATION>51.8709</INCLINATION><RA_OF_ASC_NODE>81.1408</RA_OF_ASC_NODE><ARG_OF_PERICENTER>67.1257</ARG_OF_PERICENTER><MEAN_ANOMALY>292.9973</MEAN_ANOMALY></meanElements><tleParameters><EPHEMERIS_TYPE>0</EPHEMERIS_TYPE><CLASSIFICATION_TYPE>U</CLASSIFICATION_TYPE><NORAD_CAT_ID>63740</NORAD_CAT_ID><ELEMENT_SET_NO>999</ELEMENT_SET_NO><REV_AT_EPOCH>1229</REV_AT_EPOCH><BSTAR>.32664E-3</BSTAR><MEAN_MOTION_DOT>.11969E-3</MEAN_MOTION_DOT><MEAN_MOTION_DDOT>0</MEAN_MOTION_DDOT></tleParameters></data></segment></body></omm>
<omm id="CCSDS_OMM_VERS" version="2.0">
<header><CREATION_DATE/><ORIGINATOR/></header><body><segment><metadata><OBJECT_NAME>KUIPER-00028</OBJECT_NAME><OBJECT_ID>2025-088T</OBJECT_ID><CENTER_NAME>EARTH</CENTER_NAME><REF_FRAME>TEME</REF_FRAME><TIME_SYSTEM>UTC</TIME_SYSTEM><MEAN_ELEMENT_THEORY>SGP4</MEAN_ELEMENT_THEORY></metadata><data><meanElements><EPOCH>2025-07-15T21:54:01.327104</EPOCH><MEAN_MOTION>15.37956954</MEAN_MOTION><ECCENTRICITY>.0001962</ECCENTRICITY><INCLINATION>51.8702</INCLINATION><RA_OF_ASC_NODE>81.0853</RA_OF_ASC_NODE><ARG_OF_PERICENTER>53.4654</ARG_OF_PERICENTER><MEAN_ANOMALY>306.6513</MEAN_ANOMALY></meanElements><tleParameters><EPHEMERIS_TYPE>0</EPHEMERIS_TYPE><CLASSIFICATION_TYPE>U</CLASSIFICATION_TYPE><NORAD_CAT_ID>63741</NORAD_CAT_ID><ELEMENT_SET_NO>999</ELEMENT_SET_NO><REV_AT_EPOCH>1270</REV_AT_EPOCH><BSTAR>.33498E-3</BSTAR><MEAN_MOTION_DOT>.12329E-3</MEAN_MOTION_DOT><MEAN_MOTION_DDOT>0</MEAN_MOTION_DDOT></tleParameters></data></segment></body></omm>
<omm id="CCSDS_OMM_VERS" version="2.0">
<header><CREATION_DATE/><ORIGINATOR/></header><body><segment><metadata><OBJECT_NAME>KUIPER-00029</OBJECT_NAME><OBJECT_ID>2025-088U</OBJECT_ID><CENTER_NAME>EARTH</CENTER_NAME><REF_FRAME>TEME</REF_FRAME><TIME_SYSTEM>UTC</TIME_SYSTEM><MEAN_ELEMENT_THEORY>SGP4</MEAN_ELEMENT_THEORY></metadata><data><meanElements><EPOCH>2025-07-16T00:33:58.906944</EPOCH><MEAN_MOTION>15.36767967</MEAN_MOTION><ECCENTRICITY>.0005165</ECCENTRICITY><INCLINATION>51.8689</INCLINATION><RA_OF_ASC_NODE>81.0617</RA_OF_ASC_NODE><ARG_OF_PERICENTER>44.8086</ARG_OF_PERICENTER><MEAN_ANOMALY>315.3317</MEAN_ANOMALY></meanElements><tleParameters><EPHEMERIS_TYPE>0</EPHEMERIS_TYPE><CLASSIFICATION_TYPE>U</CLASSIFICATION_TYPE><NORAD_CAT_ID>63742</NORAD_CAT_ID><ELEMENT_SET_NO>999</ELEMENT_SET_NO><REV_AT_EPOCH>1224</REV_AT_EPOCH><BSTAR>.29561E-3</BSTAR><MEAN_MOTION_DOT>.10414E-3</MEAN_MOTION_DOT><MEAN_MOTION_DDOT>0</MEAN_MOTION_DDOT></tleParameters></data></segment></body></omm>
<omm id="CCSDS_OMM_VERS" version="2.0">
<header><CREATION_DATE/><ORIGINATOR/></header><body><segment><metadata><OBJECT_NAME>KUIPER-00030</OBJECT_NAME><OBJECT_ID>2025-088V</OBJECT_ID><CENTER_NAME>EARTH</CENTER_NAME><REF_FRAME>TEME</REF_FRAME><TIME_SYSTEM>UTC</TIME_SYSTEM><MEAN_ELEMENT_THEORY>SGP4</MEAN_ELEMENT_THEORY></metadata><data><meanElements><EPOCH>2025-07-16T14:00:01.999872</EPOCH><MEAN_MOTION>15.19608406</MEAN_MOTION><ECCENTRICITY>.0010694</ECCENTRICITY><INCLINATION>51.8789</INCLINATION><RA_OF_ASC_NODE>80.5657</RA_OF_ASC_NODE><ARG_OF_PERICENTER>22.3543</ARG_OF_PERICENTER><MEAN_ANOMALY>218.0499</MEAN_ANOMALY></meanElements><tleParameters><EPHEMERIS_TYPE>0</EPHEMERIS_TYPE><CLASSIFICATION_TYPE>U</CLASSIFICATION_TYPE><NORAD_CAT_ID>63743</NORAD_CAT_ID><ELEMENT_SET_NO>999</ELEMENT_SET_NO><REV_AT_EPOCH>1257</REV_AT_EPOCH><BSTAR>.60486E-3</BSTAR><MEAN_MOTION_DOT>.12767E-3</MEAN_MOTION_DOT><MEAN_MOTION_DDOT>0</MEAN_MOTION_DDOT></tleParameters></data></segment></body></omm>
<omm id="CCSDS_OMM_VERS" version="2.0">
<header><CREATION_DATE/><ORIGINATOR/></header><body><segment><metadata><OBJECT_NAME>KUIPER-00031</OBJECT_NAME><OBJECT_ID>2025-088W</OBJECT_ID><CENTER_NAME>EARTH</CENTER_NAME><REF_FRAME>TEME</REF_FRAME><TIME_SYSTEM>UTC</TIME_SYSTEM><MEAN_ELEMENT_THEORY>SGP4</MEAN_ELEMENT_THEORY></metadata><data><meanElements><EPOCH>2025-07-16T09:17:43.393056</EPOCH><MEAN_MOTION>15.37483404</MEAN_MOTION><ECCENTRICITY>.0004241</ECCENTRICITY><INCLINATION>51.8702</INCLINATION><RA_OF_ASC_NODE>79.0080</RA_OF_ASC_NODE><ARG_OF_PERICENTER>42.5549</ARG_OF_PERICENTER><MEAN_ANOMALY>317.5766</MEAN_ANOMALY></meanElements><tleParameters><EPHEMERIS_TYPE>0</EPHEMERIS_TYPE><CLASSIFICATION_TYPE>U</CLASSIFICATION_TYPE><NORAD_CAT_ID>63744</NORAD_CAT_ID><ELEMENT_SET_NO>999</ELEMENT_SET_NO><REV_AT_EPOCH>1230</REV_AT_EPOCH><BSTAR>.24686E-3</BSTAR><MEAN_MOTION_DOT>.8837E-4</MEAN_MOTION_DOT><MEAN_MOTION_DDOT>0</MEAN_MOTION_DDOT></tleParameters></data></segment></body></omm>
<omm id="CCSDS_OMM_VERS" version="2.0">
<header><CREATION_DATE/><ORIGINATOR/></header><body><segment><metadata><OBJECT_NAME>KUIPER-00032</OBJECT_NAME><OBJECT_ID>2025-088X</OBJECT_ID><CENTER_NAME>EARTH</CENTER_NAME><REF_FRAME>TEME</REF_FRAME><TIME_SYSTEM>UTC</TIME_SYSTEM><MEAN_ELEMENT_THEORY>SGP4</MEAN_ELEMENT_THEORY></metadata><data><meanElements><EPOCH>2025-07-16T01:51:11.716416</EPOCH><MEAN_MOTION>15.37235090</MEAN_MOTION><ECCENTRICITY>.0004912</ECCENTRICITY><INCLINATION>51.8688</INCLINATION><RA_OF_ASC_NODE>80.6695</RA_OF_ASC_NODE><ARG_OF_PERICENTER>29.4354</ARG_OF_PERICENTER><MEAN_ANOMALY>330.6908</MEAN_ANOMALY></meanElements><tleParameters><EPHEMERIS_TYPE>0</EPHEMERIS_TYPE><CLASSIFICATION_TYPE>U</CLASSIFICATION_TYPE><NORAD_CAT_ID>63745</NORAD_CAT_ID><ELEMENT_SET_NO>999</ELEMENT_SET_NO><REV_AT_EPOCH>1325</REV_AT_EPOCH><BSTAR>-.8736E-4</BSTAR><MEAN_MOTION_DOT>-.3628E-4</MEAN_MOTION_DOT><MEAN_MOTION_DDOT>0</MEAN_MOTION_DDOT></tleParameters></data></segment></body></omm>
<omm id="CCSDS_OMM_VERS" version="2.0">
<header><CREATION_DATE/><ORIGINATOR/></header><body><segment><metadata><OBJECT_NAME>KUIPER-00033</OBJECT_NAME><OBJECT_ID>2025-088Y</OBJECT_ID><CENTER_NAME>EARTH</CENTER_NAME><REF_FRAME>TEME</REF_FRAME><TIME_SYSTEM>UTC</TIME_SYSTEM><MEAN_ELEMENT_THEORY>SGP4</MEAN_ELEMENT_THEORY></metadata><data><meanElements><EPOCH>2025-07-16T06:00:02.000160</EPOCH><MEAN_MOTION>14.79815543</MEAN_MOTION><ECCENTRICITY>.0003422</ECCENTRICITY><INCLINATION>51.9096</INCLINATION><RA_OF_ASC_NODE>92.1246</RA_OF_ASC_NODE><ARG_OF_PERICENTER>101.9922</ARG_OF_PERICENTER><MEAN_ANOMALY>140.7436</MEAN_ANOMALY></meanElements><tleParameters><EPHEMERIS_TYPE>0</EPHEMERIS_TYPE><CLASSIFICATION_TYPE>U</CLASSIFICATION_TYPE><NORAD_CAT_ID>63746</NORAD_CAT_ID><ELEMENT_SET_NO>999</ELEMENT_SET_NO><REV_AT_EPOCH>1258</REV_AT_EPOCH><BSTAR>.29568E-3</BSTAR><MEAN_MOTION_DOT>.2027E-4</MEAN_MOTION_DOT><MEAN_MOTION_DDOT>0</MEAN_MOTION_DDOT></tleParameters></data></segment></body></omm>
<omm id="CCSDS_OMM_VERS" version="2.0">
<header><CREATION_DATE/><ORIGINATOR/></header><body><segment><metadata><OBJECT_NAME>KUIPER-00034</OBJECT_NAME><OBJECT_ID>2025-088Z</OBJECT_ID><CENTER_NAME>EARTH</CENTER_NAME><REF_FRAME>TEME</REF_FRAME><TIME_SYSTEM>UTC</TIME_SYSTEM><MEAN_ELEMENT_THEORY>SGP4</MEAN_ELEMENT_THEORY></metadata><data><meanElements><EPOCH>2025-07-16T08:52:01.824384</EPOCH><MEAN_MOTION>15.37612921</MEAN_MOTION><ECCENTRICITY>.0002399</ECCENTRICITY><INCLINATION>51.8709</INCLINATION><RA_OF_ASC_NODE>78.8981</RA_OF_ASC_NODE><ARG_OF_PERICENTER>62.7531</ARG_OF_PERICENTER><MEAN_ANOMALY>297.3700</MEAN_ANOMALY></meanElements><tleParameters><EPHEMERIS_TYPE>0</EPHEMERIS_TYPE><CLASSIFICATION_TYPE>U</CLASSIFICATION_TYPE><NORAD_CAT_ID>63747</NORAD_CAT_ID><ELEMENT_SET_NO>999</ELEMENT_SET_NO><REV_AT_EPOCH>1246</REV_AT_EPOCH><BSTAR>.26039E-3</BSTAR><MEAN_MOTION_DOT>.9384E-4</MEAN_MOTION_DOT><MEAN_MOTION_DDOT>0</MEAN_MOTION_DDOT></tleParameters></data></segment></body></omm>

</ndm>
